STARLINK-32254          
1 60427U 24144C   26068.72961829 -.00000347  00000+0  42560-6 0  9997
2 60427  53.1601 217.0640 0001426  84.7865 275.3299 15.30184967 89354
TOMORROW-S1             
1 60479U 24149M   26068.72470524  .00008620  00000+0  28856-3 0  9996
2 60479  97.3791 149.6044 0001819 207.2040 152.9106 15.31198362 86867
